[Satellite]
VERSION=1.1
NAME=STARLINK-1379
NICKNAME=STARLINK-1379
TLE1=1 45549U 20025U   20141.50001157  .02260576  00000-0  33417-1 0  9990
TLE2=2 45549  53.0014 263.4900 0002611 109.5490   0.1122 15.51745179  5066
STATUS=0
